0 THORAD DELTA 1 DEB
1 08179U 74089AV  13283.96106617  .00000016  00000-0  45710-3 0  1074
2 08179 101.3945 283.5463 0099805 323.4667 094.6440 12.33601483751969
0 THORAD DELTA 1 DEB
1 08179U 74089AV  13285.99045086  .00000010  00000-0  40680-3 0  1087
2 08179 101.3943 285.4243 0099803 319.6297 107.0805 12.33601849752217
0 THORAD DELTA 1 DEB
1 08179U 74089AV  13289.50108027 -.00000016  00000-0  20086-3 0  1099
2 08179 101.3945 288.6727 0099794 312.9824 217.6945 12.33602380752643
0 THORAD DELTA 1 DEB
1 08179U 74089AV  13291.52436664 -.00000028  00000-0  10164-3 0  1106
2 08179 101.3948 290.5447 0099742 309.1516 203.0589 12.33602425752896
0 THORAD DELTA 1 DEB
1 08179U 74089AV  13293.54362672 -.00000012  00000-0  23167-3 0  1118
2 08179 101.3951 292.4130 0099698 305.3352 170.5378 12.33602573753143
0 THORAD DELTA 1 DEB
1 08179U 74089AV  13295.96298163  .00000017  00000-0  46659-3 0  1125
2 08179 101.3951 294.6518 0099688 300.7501 114.8414 12.33602641753442
